STARLINK-1471           
1 45735U 20038F   26129.94282564  .00017596  00000+0  29260-3 0  9996
2 45735  53.0444 207.8135 0002651  53.0476 307.0775 15.52171795327038
STARLINK-1480           
1 45741U 20038M   26130.14182641  .00073116  00000+0  84291-3 0  9997
2 45741  53.0483 279.7961 0003788 285.9921  74.0675 15.61307367326042
STARLINK-1500           
1 45744U 20038Q   26130.08348892  .00014437  00000+0  39057-3 0  9996
2 45744  53.0348 264.0357 0002537  91.4431 268.6863 15.37965171326257
STARLINK-1504           
1 45746U 20038S   26129.92659216  .00021613  00000+0  29688-3 0  9997
2 45746  53.0202 205.8111 0002859  24.5548 335.5598 15.57277704327049
STARLINK-1506           
1 45747U 20038T   26130.11675238  .00004983  00000+0  19338-3 0  9995
2 45747  53.0759 277.8546 0003999  90.7303 269.4153 15.27862689326071
STARLINK-1464           
1 45751U 20038X   26130.10600095  .00060344  00000+0  98942-3 0  9999
2 45751  53.0468 270.9178 0001326 299.3980  60.6896 15.51900751326163
STARLINK-1477           
1 45754U 20038AA  26129.81427587  .00017797  00000+0  88994-3 0  9991
2 45754  53.0522 294.4563 0001736 162.9691 197.1362 15.17520382325809
STARLINK-1478           
1 45755U 20038AB  26130.05425566  .00037266  00000+0  37073-3 0  9990
2 45755  53.0457 258.7676 0001981 333.8151  26.2763 15.65373131326312
STARLINK-1493           
1 45759U 20038AF  26130.19681311  .00069712  00000+0  82232-3 0  9999
2 45759  53.0477 266.9284 0004731 275.7733  84.2740 15.60725799326214
STARLINK-1494           
1 45760U 20038AG  26130.16668980  .00203497  26420-4  63030-3 0  9999
2 45760  53.0410 202.4031 0006214 342.7201 337.0994 15.91288005  6001
STARLINK-1502           
1 45764U 20038AL  26130.11811326  .00070537  00000+0  95486-3 0  9990
2 45764  53.0469 270.3652 0005622 248.0616 111.9798 15.57071195326178
STARLINK-1470           
1 45772U 20038AU  26129.59431579  .00026031  00000+0  80793-3 0  9992
2 45772  53.0449 250.4737 0001884 281.8657  78.2133 15.33235326326400
STARLINK-1482           
1 45773U 20038AV  26130.10592313  .00029347  00000+0  84545-3 0  9998
2 45773  53.1583 264.6457 0002294 271.1548  88.9192 15.35527638326263
STARLINK-1496           
1 45780U 20038BC  26130.01662588  .00071562  00000+0  90841-3 0  9990
2 45780  53.0471 241.9911 0006001 346.3774  13.7075 15.58778021326541
STARLINK-1513           
1 45786U 20038BJ  26129.67035344  .00000938  00000+0  41997-4 0  9998
2 45786  53.1586 267.6424 0001114 103.9141 256.1984 15.31697410326189
GAOFEN-9 03             
1 45794U 20039A   26130.14636199  .00004240  00000+0  14059-3 0  9995
2 45794  97.5335 263.3686 0010999 211.2175 148.8415 15.31781775327934
BEIDOU-3 G3             
1 45807U 20040A   26130.06287631 -.00000344  00000+0  00000+0 0  9995
2 45807   2.3536  67.3321 0003550 332.6370 321.0162  1.00277563 21687
NAVSTAR 79 (USA 304)    
1 45854U 20041A   26128.08857494 -.00000075  00000+0  00000+0 0  9998
2 45854  56.6449  30.5000 0062533 204.8784 328.5903  2.00559772 43231
GAOFEN DUOMO (GFDM)     
1 45856U 20042A   26130.19803674  .00000622  00000+0  95494-4 0  9990
2 45856  97.7763 191.4618 0010594 188.4479 171.6555 14.76827513315406
SHIYAN-6 02 (SY-6 02)   
1 45859U 20043A   26130.01243385  .00000245  00000+0  54614-4 0  9992
2 45859  98.1860 141.7296 0128558 346.5128  13.2648 14.60911290311285
APSTAR-6D               
1 45863U 20045A   26130.21015384 -.00000308  00000+0  00000+0 0  9993
2 45863   0.0434  92.9069 0002409  11.3177 333.4918  1.00271532 21475
KOREASAT 116            
1 45920U 20048A   26130.04489244 -.00000353  00000+0  00000+0 0  9991
2 45920   0.0147 284.8306 0001073 119.7007 315.6920  1.00275137 21253
ZIYUAN 3-03 (ZY 3-03)   
1 45939U 20051A   26130.16887066  .00002063  00000+0  94757-4 0  9998
2 45939  97.2846 199.1172 0007233  85.3770 274.8292 15.21461109321564
EXPRESS 103             
1 45985U 20053A   26129.41846946 -.00000272  00000+0  00000+0 0  9993
2 45985   0.0113 299.9681 0000300  82.2806  92.1551  1.00271569 21266
EXPRESS 80              
1 45986U 20053B   26129.14731064 -.00000128  00000+0  00000+0 0  9998
2 45986   0.0227 284.4428 0001689 278.8703 156.6875  1.00272470 21246
GAOFEN-9 04             
1 46025U 20054A   26130.18632172  .00008189  00000+0  23233-3 0  9991
2 46025  97.2442 199.7157 0009820 221.0916 138.9589 15.36431287320521
STARLINK-1522           
1 46027U 20055A   26130.21495477  .00012674  00000+0  74556-3 0  9991
2 46027  53.0618 208.5696 0001870 325.1797  34.9072 15.11998689318183
STARLINK-1523           
1 46028U 20055B   26130.17941365 -.00004456  00000+0 -13845-3 0  9994
2 46028  53.1610 201.0886 0000901  79.3166 280.7936 15.30192042318313
STARLINK-1526           
1 46029U 20055C   26129.91182235  .00001989  00000+0  79255-4 0  9992
2 46029  53.1587 202.3430 0001270  90.8684 269.2462 15.30199912318262
STARLINK-1555           
1 46032U 20055F   26129.89602707  .00002053  00000+0  81436-4 0  9991
2 46032  53.1585 202.3985 0001374  88.9523 271.1635 15.30192410318264
