OBJECT_NAME,OBJECT_ID,EPOCH,MEAN_MOTION,ECCENTRICITY,INCLINATION,RA_OF_ASC_NODE,ARG_OF_PERICENTER,MEAN_ANOMALY,EPHEMERIS_TYPE,CLASSIFICATION_TYPE,NORAD_CAT_ID,ELEMENT_SET_NO,REV_AT_EPOCH,BSTAR,MEAN_MOTION_DOT,MEAN_MOTION_DDOT
STARLINK-1471,2020-038F,2026-05-09T22:37:40.135296,15.52171795,.0002651,53.0444,207.8135,53.0476,307.0775,0,U,45735,999,32703,.2926E-3,.17596E-3,0
STARLINK-1480,2020-038M,2026-05-10T03:24:13.801824,15.61307367,.0003788,53.0483,279.7961,285.9921,74.0675,0,U,45741,999,32604,.84291E-3,.73116E-3,0
STARLINK-1500,2020-038Q,2026-05-10T02:00:13.442688,15.37965171,.0002537,53.0348,264.0357,91.4431,268.6863,0,U,45744,999,32625,.39057E-3,.14437E-3,0
STARLINK-1504,2020-038S,2026-05-09T22:14:17.562624,15.57277704,.0002859,53.0202,205.8111,24.5548,335.5598,0,U,45746,999,32704,.29688E-3,.21613E-3,0
STARLINK-1506,2020-038T,2026-05-10T02:48:07.405632,15.27862689,.0003999,53.0759,277.8546,90.7303,269.4153,0,U,45747,999,32607,.19338E-3,.4983E-4,0
STARLINK-1464,2020-038X,2026-05-10T02:32:38.482080,15.51900751,.0001326,53.0468,270.9178,299.3980,60.6896,0,U,45751,999,32616,.98942E-3,.60344E-3,0
STARLINK-1477,2020-038AA,2026-05-09T19:32:33.435168,15.17520382,.00017367,53.0522,294.4563,162.9691,197.1362,0,U,45754,999,32580,.88994136E-3,.17797E-3,0
STARLINK-1478,2020-038AB,2026-05-10T01:18:07.689024,15.65373131,.0001981,53.0457,258.7676,333.8151,26.2763,0,U,45755,999,32631,.37073E-3,.37266E-3,0
STARLINK-1493,2020-038AF,2026-05-10T04:43:24.652704,15.60725799,.0004731,53.0477,266.9284,275.7733,84.2740,0,U,45759,999,32621,.82232E-3,.69712E-3,0
STARLINK-1494,2020-038AG,2026-05-10T04:00:01.998720,15.91288005,.0006214,53.0410,202.4031,342.7201,337.0994,0,U,45760,999,600,.6303E-3,.203497E-2,.2642E-4
STARLINK-1502,2020-038AL,2026-05-10T02:50:04.985664,15.57071195,.0005622,53.0469,270.3652,248.0616,111.9798,0,U,45764,999,32617,.95486E-3,.70537E-3,0
STARLINK-1470,2020-038AU,2026-05-09T14:15:48.884256,15.33235326,.00018844,53.0449,250.4737,281.8657,78.2133,0,U,45772,999,32640,.80792815E-3,.26031E-3,0
STARLINK-1482,2020-038AV,2026-05-10T02:32:31.758432,15.35527638,.0002294,53.1583,264.6457,271.1548,88.9192,0,U,45773,999,32626,.84545E-3,.29347E-3,0
STARLINK-1496,2020-038BC,2026-05-10T00:23:56.476032,15.58778021,.0006001,53.0471,241.9911,346.3774,13.7075,0,U,45780,999,32654,.90841E-3,.71562E-3,0
STARLINK-1513,2020-038BJ,2026-05-09T16:05:18.537216,15.31697410,.00011141,53.1586,267.6424,103.9141,256.1984,0,U,45786,999,32618,.41996787E-4,.938E-5,0
GAOFEN-9 03,2020-039A,2026-05-10T03:30:45.675936,15.31781775,.0010999,97.5335,263.3686,211.2175,148.8415,0,U,45794,999,32793,.14059E-3,.424E-4,0
BEIDOU-3 G3,2020-040A,2026-05-10T01:30:32.513184,1.00277563,.000355,2.3536,67.3321,332.6370,321.0162,0,U,45807,999,2168,0,-.344E-5,0
NAVSTAR 79 (USA 304),2020-041A,2026-05-08T02:07:32.874816,2.00559772,.00625332,56.6449,30.5000,204.8784,328.5903,0,U,45854,999,4323,0,-.75E-6,0
GAOFEN DUOMO (GFDM),2020-042A,2026-05-10T04:45:10.374336,14.76827513,.0010594,97.7763,191.4618,188.4479,171.6555,0,U,45856,999,31540,.95494E-4,.622E-5,0
SHIYAN-6 02 (SY-6 02),2020-043A,2026-05-10T00:17:54.284640,14.60911290,.0128558,98.1860,141.7296,346.5128,13.2648,0,U,45859,999,31128,.54614E-4,.245E-5,0
APSTAR-6D,2020-045A,2026-05-10T05:02:37.291776,1.00271532,.0002409,0.0434,92.9069,11.3177,333.4918,0,U,45863,999,2147,0,-.308E-5,0
KOREASAT 116,2020-048A,2026-05-10T01:04:38.706816,1.00275137,.0001073,0.0147,284.8306,119.7007,315.6920,0,U,45920,999,2125,0,-.353E-5,0
ZIYUAN 3-03 (ZY 3-03),2020-051A,2026-05-10T04:03:10.425024,15.21461109,.0007233,97.2846,199.1172,85.3770,274.8292,0,U,45939,999,32156,.94757E-4,.2063E-4,0
EXPRESS 103,2020-053A,2026-05-09T10:02:35.761344,1.00271569,.00003005,0.0113,299.9681,82.2806,92.1551,0,U,45985,999,2126,0,-.272E-5,0
EXPRESS 80,2020-053B,2026-05-09T03:32:07.639296,1.00272470,.0001689,0.0227,284.4428,278.8703,156.6875,0,U,45986,999,2124,0,-.128E-5,0
GAOFEN-9 04,2020-054A,2026-05-10T04:28:18.196608,15.36431287,.000982,97.2442,199.7157,221.0916,138.9589,0,U,46025,999,32052,.23233E-3,.8189E-4,0
STARLINK-1522,2020-055A,2026-05-10T05:09:32.092128,15.11998689,.000187,53.0618,208.5696,325.1797,34.9072,0,U,46027,999,31818,.74556E-3,.12674E-3,0
STARLINK-1523,2020-055B,2026-05-10T04:18:21.339360,15.30192042,.0000901,53.1610,201.0886,79.3166,280.7936,0,U,46028,999,31831,-.13845E-3,-.4456E-4,0
STARLINK-1526,2020-055C,2026-05-09T21:53:01.451040,15.30199912,.000127,53.1587,202.3430,90.8684,269.2462,0,U,46029,999,31826,.79255E-4,.1989E-4,0
STARLINK-1555,2020-055F,2026-05-09T21:30:16.738848,15.30192410,.0001374,53.1585,202.3985,88.9523,271.1635,0,U,46032,999,31826,.81436E-4,.2053E-4,0
